STARLINK-31712          
1 59491U 24071H   26068.16595226 -.00003547  00000+0 -11947-3 0  9995
2 59491  42.9962 354.1129 0000836  63.8061 296.2877 15.27576127107998
FLOCK 4G-5              
1 62663U 25009BG  26068.45638436  .00011278  00000+0  40688-3 0  9997
2 62663  97.4058 151.2478 0002094 314.5072  45.5996 15.28679529 63699
